NORAD_CAT_ID,OBJECT_NAME,OBJECT_TYPE,EPOCH,MEAN_MOTION,ECCENTRICITY,INCLINATION,RA_OF_ASC_NODE,ARG_OF_PERICENTER,MEAN_ANOMALY,BSTAR,MEAN_MOTION_DOT,MEAN_MOTION_DDOT,TLE_LINE0,TLE_LINE1,TLE_LINE2,SEMIMAJOR_AXIS,PERIOD,APOGEE,PERIGEE,DECAYED
55282.0,STARLINK-5330,PAYLOAD,2023-09-01 19:57:37,14.9832754,0.0003738,69.9968,203.5983,266.6659,93.4072,0.00012283,1.373e-05,0.0,0 STARLINK-5330,1 55282U 23010P   23244.83167877  .00001373  00000-0  12283-3 0  9993,2 55282  69.9968 203.5983 0003738 266.6659  93.4072 14.98327540 34995,6950.2,96.107,574.663,569.468,0.0
55282.0,STARLINK-5330,PAYLOAD,2023-09-02 03:58:17,14.98334026,0.0003109,69.9961,202.7565,269.1399,90.9403,5.9291e-05,6.15e-06,0.0,0 STARLINK-5330,1 55282U 23010P   23245.16547746  .00000615  00000-0  59291-4 0  9996,2 55282  69.9961 202.7565 0003109 269.1399  90.9403 14.98334026 34746,6950.18,96.107,574.206,569.885,0.0
55282.0,STARLINK-5330,PAYLOAD,2023-09-02 19:59:37,14.98332526,0.0003162,69.9966,201.0734,269.381,90.6987,5.9996e-05,6.23e-06,0.0,0 STARLINK-5330,1 55282U 23010P   23245.83307727  .00000623  00000-0  59996-4 0  9994,2 55282  69.9966 201.0734 0003162 269.3810  90.6987 14.98332526 35142,6950.185,96.107,574.248,569.852,0.0
55282.0,STARLINK-5330,PAYLOAD,2023-09-03 07:12:34,14.98334249,0.0003145,69.9995,199.8955,269.8733,90.2066,6.0746e-05,6.32e-06,0.0,0 STARLINK-5330,1 55282U 23010P   23246.30039605  .00000632  00000-0  60746-4 0  9999,2 55282  69.9995 199.8955 0003145 269.8733  90.2066 14.98334249 34915,6950.18,96.107,574.231,569.859,0.0
55282.0,STARLINK-5330,PAYLOAD,2023-09-03 23:13:56,14.98322973,0.0003031,70.0002,198.2138,269.0928,90.9883,-7.7597e-05,-1.019e-05,0.0,0 STARLINK-5330,1 55282U 23010P   23246.96800938 -.00001019  00000-0 -77597-4 0  9990,2 55282  70.0002 198.2138 0003031 269.0928  90.9883 14.98322973 35012,6950.215,96.107,574.186,569.973,0.0
55282.0,STARLINK-5330,PAYLOAD,2023-09-04 07:14:35,14.98328468,0.0003045,69.9999,197.3713,265.7239,94.3572,-3.3619e-05,-4.94e-06,0.0,0 STARLINK-5330,1 55282U 23010P   23247.30180350 -.00000494  00000-0 -33619-4 0  9991,2 55282  69.9999 197.3713 0003045 265.7239  94.3572 14.98328468 35069,6950.198,96.107,574.179,569.946,0.0
55282.0,STARLINK-5330,PAYLOAD,2023-09-05 02:28:12,14.98332493,0.0003088,70.0001,195.3511,270.4889,89.5917,7.7121e-05,8.27e-06,0.0,0 STARLINK-5330,1 55282U 23010P   23248.10291829  .00000827  00000-0  77121-4 0  9998,2 55282  70.0001 195.3511 0003088 270.4889  89.5917 14.98332493 35186,6950.185,96.107,574.196,569.904,0.0
55282.0,STARLINK-5330,PAYLOAD,2023-09-06 02:30:13,14.98328328,0.0003035,69.9999,192.826,267.7061,92.375,8.4192e-05,9.12e-06,0.0,0 STARLINK-5330,1 55282U 23010P   23249.10432051  .00000912  00000-0  84192-4 0  9994,2 55282  69.9999 192.8260 0003035 267.7061  92.3750 14.98328328 35331,6950.198,96.107,574.172,569.954,0.0
55282.0,STARLINK-5330,PAYLOAD,2023-09-06 05:42:29,14.98324483,0.0002878,70.0004,192.4892,265.7559,94.3271,0.00018595,2.126e-05,0.0,0 STARLINK-5330,1 55282U 23010P   23249.23784060  .00002126  00000-0  18595-3 0  9990,2 55282  70.0004 192.4892 0002878 265.7559  94.3271 14.98324483 35655,6950.21,96.107,574.075,570.075,0.0
55282.0,STARLINK-5330,PAYLOAD,2023-09-07 02:32:14,14.98333549,0.0002671,70.0008,190.3016,267.445,92.6403,-1.7198e-05,-2.98e-06,0.0,0 STARLINK-5330,1 55282U 23010P   23250.10571985 -.00000298  00000-0 -17198-4 0  9997,2 55282  70.0008 190.3016 0002671 267.4450  92.6403 14.98333549 35486,6950.182,96.107,573.903,570.191,0.0
55282.0,STARLINK-5330,PAYLOAD,2023-09-07 07:20:38,14.98333458,0.0002672,70.0008,189.7966,267.6464,92.4389,-1.5963e-05,-2.83e-06,0.0,0 STARLINK-5330,1 55282U 23010P   23250.30599951 -.00000283  00000-0 -15963-4 0  9994,2 55282  70.0008 189.7966 0002672 267.6464  92.4389 14.98333458 35817,6950.182,96.107,573.904,570.19,0.0
55282.0,STARLINK-5330,PAYLOAD,2023-09-08 02:34:15,14.9832862,0.000266,70.0009,187.7761,267.5263,92.5592,2.8489e-05,2.47e-06,0.0,0 STARLINK-5330,1 55282U 23010P   23251.10712082  .00000247  00000-0  28489-4 0  9990,2 55282  70.0009 187.7761 0002660 267.5263  92.5592 14.98328620 35634,6950.197,96.107,573.911,570.213,0.0
55282.0,STARLINK-5330,PAYLOAD,2023-09-08 07:22:39,14.9833213,0.0002709,70.001,187.2715,268.2106,91.8743,5.1587e-05,5.23e-06,0.0,0 STARLINK-5330,1 55282U 23010P   23251.30739808  .00000523  00000-0  51587-4 0  9999,2 55282  70.0010 187.2715 0002709 268.2106  91.8743 14.98332130 35965,6950.186,96.107,573.934,570.168,0.0
55282.0,STARLINK-5330,PAYLOAD,2023-09-09 02:36:15,14.98332693,0.000274,70.0011,185.2522,268.4322,91.6523,4.5964e-05,4.56e-06,0.0,0 STARLINK-5330,1 55282U 23010P   23252.10851731  .00000456  00000-0  45964-4 0  9995,2 55282  70.0011 185.2522 0002740 268.4322  91.6523 14.98332693 35785,6950.185,96.107,573.954,570.145,0.0
55282.0,STARLINK-5330,PAYLOAD,2023-09-09 07:24:39,14.98336969,0.0002799,70.001,184.7474,268.9045,91.1794,9.1128e-05,9.95e-06,0.0,0 STARLINK-5330,1 55282U 23010P   23252.30879283  .00000995  00000-0  91128-4 0  9990,2 55282  70.0010 184.7474 0002799 268.9045  91.1794 14.98336969 36118,6950.171,96.107,573.982,570.091,0.0
55282.0,STARLINK-5330,PAYLOAD,2023-09-10 01:02:08,14.98319449,0.0002631,70.0014,182.8971,262.2955,97.7905,0.00021975,2.529e-05,0.0,0 STARLINK-5330,1 55282U 23010P   23253.04315851  .00002529  00000-0  21975-3 0  9995,2 55282  70.0014 182.8971 0002631 262.2955  97.7905 14.98319449 35923,6950.226,96.108,573.919,570.262,0.0
55282.0,STARLINK-5330,PAYLOAD,2023-09-10 05:50:32,14.98329668,0.0002625,70.0013,182.3918,261.0892,98.997,4.9977e-05,5.03e-06,0.0,0 STARLINK-5330,1 55282U 23010P   23253.24343729  .00000503  00000-0  49977-4 0  9995,2 55282  70.0013 182.3918 0002625 261.0892  98.9970 14.98329668 36254,6950.194,96.107,573.883,570.234,0.0
55282.0,STARLINK-5330,PAYLOAD,2023-09-11 02:40:18,14.98326684,0.0002658,70.0015,180.2039,260.9,99.1858,-1.2724e-05,-2.45e-06,0.0,0 STARLINK-5330,1 55282U 23010P   23254.11132111 -.00000245  00000-0 -12724-4 0  9998,2 55282  70.0015 180.2039 0002658 260.9000  99.1858 14.98326684 36086,6950.203,96.107,573.916,570.221,0.0
55282.0,STARLINK-5330,PAYLOAD,2023-09-11 12:17:06,14.98332431,0.0002844,70.0009,179.1927,268.2553,91.828,-3.5292e-05,-5.14e-06,0.0,0 STARLINK-5330,1 55282U 23010P   23254.51187787 -.00000514  00000-0 -35292-4 0  9995,2 55282  70.0009 179.1927 0002844 268.2553  91.8280 14.98332431 36448,6950.185,96.107,574.027,570.074,0.0
55282.0,STARLINK-5330,PAYLOAD,2023-09-12 02:42:18,14.98335903,0.0002802,70.001,177.678,263.6619,96.4221,3.8664e-05,3.68e-06,0.0,0 STARLINK-5330,1 55282U 23010P   23255.11271348  .00000368  00000-0  38664-4 0  9990,2 55282  70.0010 177.6780 0002802 263.6619  96.4221 14.98335903 36236,6950.175,96.107,573.987,570.092,0.0
55282.0,STARLINK-5330,PAYLOAD,2023-09-12 04:18:26,14.98337384,0.0002901,70.0011,177.5098,265.1639,94.9189,4.1318e-05,4e-06,0.0,0 STARLINK-5330,1 55282U 23010P   23255.17947260  .00000400  00000-0  41318-4 0  9996,2 55282  70.0011 177.5098 0002901 265.1639  94.9189 14.98337384 36542,6950.17,96.107,574.051,570.019,0.0
55282.0,STARLINK-5330,PAYLOAD,2023-09-12 20:19:47,14.98329014,0.000278,70.0008,175.8265,263.8597,96.2246,8.1884e-05,8.84e-06,0.0,0 STARLINK-5330,1 55282U 23010P   23255.84707585  .00000884  00000-0  81884-4 0  9992,2 55282  70.0008 175.8265 0002780 263.8597  96.2246 14.98329014 36649,6950.196,96.107,573.993,570.129,0.0
55282.0,STARLINK-5330,PAYLOAD,2023-09-13 02:44:19,14.98329473,0.0003088,70.0007,175.1531,269.8922,90.1883,0.00020349,2.336e-05,0.0,0 STARLINK-5330,1 55282U 23010P   23256.11411258  .00002336  00000-0  20349-3 0  9994,2 55282  70.0007 175.1531 0003088 269.8922  90.1883 14.98329473 36387,6950.195,96.107,574.206,569.913,0.0
55282.0,STARLINK-5330,PAYLOAD,2023-09-13 04:20:27,14.98335583,0.0002977,70.0011,174.9857,269.3899,90.6919,0.00015925,1.808e-05,0.0,0 STARLINK-5330,1 55282U 23010P   23256.18086989  .00001808  00000-0  15925-3 0  9997,2 55282  70.0011 174.9857 0002977 269.3899  90.6919 14.98335583 36692,6950.176,96.107,574.11,569.972,0.0
55282.0,STARLINK-5330,PAYLOAD,2023-09-13 21:57:56,14.98325582,0.0002924,70.0012,173.1357,266.8249,93.2575,-4.2527e-05,-6e-06,0.0,0 STARLINK-5330,1 55282U 23010P   23256.91524036 -.00000600  00000-0 -42527-4 0  9998,2 55282  70.0012 173.1357 0002924 266.8249  93.2575 14.98325582 36800,6950.207,96.107,574.104,570.039,0.0
55282.0,STARLINK-5330,PAYLOAD,2023-09-14 02:46:20,14.98327683,0.0002859,70.0004,172.6295,267.3927,92.6905,-3.8181e-05,-5.48e-06,0.0,0 STARLINK-5330,1 55282U 23010P   23257.11551934 -.00000548  00000-0 -38181-4 0  9990,2 55282  70.0004 172.6295 0002859 267.3927  92.6905 14.98327683 36536,6950.2,96.107,574.052,570.078,0.0
55282.0,STARLINK-5330,PAYLOAD,2023-09-14 05:58:36,14.98329684,0.0002918,70.0007,172.2937,268.6907,91.3918,-1.7617e-05,-3.03e-06,0.0,0 STARLINK-5330,1 55282U 23010P   23257.24903773 -.00000303  00000-0 -17617-4 0  9996,2 55282  70.0007 172.2937 0002918 268.6907  91.3918 14.98329684 36854,6950.194,96.107,574.087,570.031,0.0
55282.0,STARLINK-5330,PAYLOAD,2023-09-14 20:23:49,14.98325033,0.0002962,70.001,170.7783,271.5254,88.5565,5.4486e-05,5.57e-06,0.0,0 STARLINK-5330,1 55282U 23010P   23257.84987864  .00000557  00000-0  54486-4 0  9999,2 55282  70.0010 170.7783 0002962 271.5254  88.5565 14.98325033 36947,6950.208,96.107,574.132,570.015,0.0
55282.0,STARLINK-5330,PAYLOAD,2023-09-15 04:24:29,14.98329009,0.0002849,70.0011,169.9368,267.9451,92.1382,9.7565e-05,1.071e-05,0.0,0 STARLINK-5330,1 55282U 23010P   23258.18367578  .00001071  00000-0  97565-4 0  9998,2 55282  70.0011 169.9368 0002849 267.9451  92.1382 14.98329009 36696,6950.196,96.107,574.041,570.081,0.0
55282.0,STARLINK-5330,PAYLOAD,2023-09-16 04:26:29,14.98354623,0.0002598,70.0008,167.4112,272.4213,87.6648,-0.00016584,-2.072e-05,0.0,0 STARLINK-5330,1 55282U 23010P   23259.18506275 -.00002072  00000-0 -16584-3 0  9993,2 55282  70.0008 167.4112 0002598 272.4213  87.6648 14.98354623 36841,6950.117,96.105,573.787,570.176,0.0
